QIANFAN-89              
1 63175U 25046S   25346.21017192  .00000194  00000+0  28104-3 0  9993
2 63175  88.9763 320.0923 0017922 122.7158 237.5724 13.50976192 47331
QIANFAN-90              
1 63176U 25046T   25346.23891244  .00000156  00000+0  22311-3 0  9996
2 63176  88.9763 320.0617 0014896 120.2244 240.0385 13.50976923 47354
QIANFAN-91              
1 66033U 25233A   25345.65107104 -.01821579  00000+0 -19189+1 0  9998
2 66033  88.9953  62.2752 0019171  43.4822 316.7853 13.78992626  7821
QIANFAN-92              
1 66034U 25233B   25345.57028075 -.01935720  00000+0 -19287+1 0  9992
2 66034  88.9949  62.2819 0022497  54.9735 305.3541 13.81854119  7811
QIANFAN-93              
1 66035U 25233C   25345.58402442 -.01952627  00000+0 -20710+1 0  9996
2 66035  88.9954  62.2834 0017044  47.1076 313.1519 13.78213484  7811
QIANFAN-94              
1 66036U 25233D   25346.13403843  .00000302  00000+0  25364-3 0  9999
2 66036  88.9944  62.2147 0016480  50.9364 309.3270 13.85410485  7890
QIANFAN-95              
1 66037U 25233E   25346.05035612  .00000717  00000+0  35538-3 0  9990
2 66037  88.9945  62.1256 0014967  42.9766 317.2589 14.16117937  7934
QIANFAN-96              
1 66038U 25233F   25346.19216534  .00000277  00000+0  25411-3 0  9990
2 66038  88.9919  62.2118 0013439  67.3694 292.8893 13.79978792  7891
